{"type": "FeatureCollection", "features": [ {"type": "Feature", "properties": {"norad_id": 34375, "name": "IRIDIUM 33 DEB", "group": "iridium-33-debris", "lat": -32.40319985373622, "lon": 179.94429752256374, "alt_km": 905.8546889471281, "timestamp": "2025-12-13T22:39:30.095576+00:00", "meta": {"OBJECT_NAME": "IRIDIUM 33 DEB", "OBJECT_ID": "1997-051FT", "EPOCH": "2025-12-12T23:49:03.895680", "MEAN_MOTION": 14.17992706, "ECCENTRICITY": 0.01033277, "INCLINATION": 86.4327, "RA_OF_ASC_NODE": 182.597, "ARG_OF_PERICENTER": 125.9322, "MEAN_ANOMALY": 27.0467, "EPHEMERIS_TYPE": 0, "CLASSIFICATION_TYPE": "U", "NORAD_CAT_ID": 34375, "ELEMENT_SET_NO": 999, "REV_AT_EPOCH": 86715, "BSTAR": 0.00059451222, "MEAN_MOTION_DOT": 1.302e-05, "MEAN_MOTION_DDOT": 0}, "tle": {"line1": "1 34375U 97051FT  25346.99240620  .00001302  00000+0  59451-3 0  9998", "line2": "2 34375  86.4327 182.5970 0103327 125.9322  27.0467 14.17992706867155"}}, "geometry": {"type": "Point", "coordinates": [179.94429752256374, -32.40319985373622]}}, {"type": "Feature", "properties": {"norad_id": 34376, "name": "IRIDIUM 33 DEB", "group": "iridium-33-debris", "lat": 6.271268650652956, "lon": -174.40880468137914, "alt_km": 668.1524785036336, "timestamp": "2025-12-13T22:39:30.095588+00:00", "meta": {"OBJECT_NAME": "IRIDIUM 33 DEB", "OBJECT_ID": "1997-051FU", "EPOCH": "2025-12-13T05:26:52.439712", "MEAN_MOTION": 14.62582751, "ECCENTRICITY": 0.00272182, "INCLINATION": 86.2989, "RA_OF_ASC_NODE": 6.321, "ARG_OF_PERICENTER": 165.0092, "MEAN_ANOMALY": 195.1933, "EPHEMERIS_TYPE": 0, "CLASSIFICATION_TYPE": "U", "NORAD_CAT_ID": 34376, "ELEMENT_SET_NO": 999, "REV_AT_EPOCH": 88014, "BSTAR": 0.0024180552, "MEAN_MOTION_DOT": 0.00012374, "MEAN_MOTION_DDOT": 0}, "tle": {"line1": "1 34376U 97051FU  25347.22699583  .00012374  00000+0  24181-2 0  9994", "line2": "2 34376  86.2989   6.3210 0027218 165.0092 195.1933 14.62582751880145"}}, "geometry": {"type": "Point", "coordinates": [-174.40880468137914, 6.271268650652956]}}, {"type": "Feature", "properties": {"norad_id": 34486, "name": "IRIDIUM 33 DEB", "group": "iridium-33-debris", "lat": 5.619598576123405, "lon": -168.8867682606868, "alt_km": 577.9544832131023, "timestamp": "2025-12-13T22:39:30.095599+00:00", "meta": {"OBJECT_NAME": "IRIDIUM 33 DEB", "OBJECT_ID": "1997-051GB", "EPOCH": "2025-12-13T02:53:20.546016", "MEAN_MOTION": 14.95831821, "ECCENTRICITY": 0.00136534, "INCLINATION": 86.3941, "RA_OF_ASC_NODE": 11.8488, "ARG_OF_PERICENTER": 112.3422, "MEAN_ANOMALY": 308.9128, "EPHEMERIS_TYPE": 0, "CLASSIFICATION_TYPE": "U", "NORAD_CAT_ID": 34486, "ELEMENT_SET_NO": 999, "REV_AT_EPOCH": 88992, "BSTAR": 0.0029300788, "MEAN_MOTION_DOT": 0.0003291, "MEAN_MOTION_DDOT": 0}, "tle": {"line1": "1 34486U 97051GB  25347.12037669  .00032910  00000+0  29301-2 0  9993", "line2": "2 34486  86.3941  11.8488 0013653 112.3422 308.9128 14.95831821889920"}}, "geometry": {"type": "Point", "coordinates": [-168.8867682606868, 5.619598576123405]}}, {"type": "Feature", "properties": {"norad_id": 34487, "name": "IRIDIUM 33 DEB", "group": "iridium-33-debris", "lat": -38.48561675707104, "lon": 8.944620253896025, "alt_km": 776.735673910799, "timestamp": "2025-12-13T22:39:30.095610+00:00", "meta": {"OBJECT_NAME": "IRIDIUM 33 DEB", "OBJECT_ID": "1997-051GC", "EPOCH": "2025-12-13T01:29:47.810688", "MEAN_MOTION": 14.43216844, "ECCENTRICITY": 0.00327796, "INCLINATION": 86.3434, "RA_OF_ASC_NODE": 12.2383, "ARG_OF_PERICENTER": 127.3536, "MEAN_ANOMALY": 296.0452, "EPHEMERIS_TYPE": 0, "CLASSIFICATION_TYPE": "U", "NORAD_CAT_ID": 34487, "ELEMENT_SET_NO": 999, "REV_AT_EPOCH": 88253, "BSTAR": 0.00027272149, "MEAN_MOTION_DOT": 9.43e-06, "MEAN_MOTION_DDOT": 0}, "tle": {"line1": "1 34487U 97051GC  25347.06235892  .00000943  00000+0  27272-3 0  9992", "line2": "2 34487  86.3434  12.2383 0032779 127.3536 296.0452 14.43216844882531"}}, "geometry": {"type": "Point", "coordinates": [8.944620253896025, -38.48561675707104]}}, {"type": "Feature", "properties": {"norad_id": 34488, "name": "IRIDIUM 33 DEB", "group": "iridium-33-debris", "lat": -56.436378340053146, "lon": -60.344604941829516, "alt_km": 485.4836737949654, "timestamp": "2025-12-13T22:39:30.095621+00:00", "meta": {"OBJECT_NAME": "IRIDIUM 33 DEB", "OBJECT_ID": "1997-051GD", "EPOCH": "2025-12-12T09:13:17.706144", "MEAN_MOTION": 15.29287842, "ECCENTRICITY": 0.0013375, "INCLINATION": 86.3234, "RA_OF_ASC_NODE": 305.9899, "ARG_OF_PERICENTER": 52.1887, "MEAN_ANOMALY": 308.0569, "EPHEMERIS_TYPE": 0, "CLASSIFICATION_TYPE": "U", "NORAD_CAT_ID": 34488, "ELEMENT_SET_NO": 999, "REV_AT_EPOCH": 89234, "BSTAR": 0.0061124826, "MEAN_MOTION_DOT": 0.00177845, "MEAN_MOTION_DDOT": 0}, "tle": {"line1": "1 34488U 97051GD  25346.38423271  .00177845  00000+0  61125-2 0  9997", "line2": "2 34488  86.3234 305.9899 0013375  52.1887 308.0569 15.29287842892343"}}, "geometry": {"type": "Point", "coordinates": [-60.344604941829516, -56.436378340053146]}}, {"type": "Feature", "properties": {"norad_id": 34492, "name": "IRIDIUM 33 DEB", "group": "iridium-33-debris", "lat": -22.17767076472811, "lon": -27.298515986776998, "alt_km": 840.8512117658029, "timestamp": "2025-12-13T22:39:30.095632+00:00", "meta": {"OBJECT_NAME": "IRIDIUM 33 DEB", "OBJECT_ID": "1997-051GH", "EPOCH": "2025-12-12T23:19:24.163680", "MEAN_MOTION": 14.25737057, "ECCENTRICITY": 0.01891196, "INCLINATION": 86.4723, "RA_OF_ASC_NODE": 334.5351, "ARG_OF_PERICENTER": 237.4159, "MEAN_ANOMALY": 151.0038, "EPHEMERIS_TYPE": 0, "CLASSIFICATION_TYPE": "U", "NORAD_CAT_ID": 34492, "ELEMENT_SET_NO": 999, "REV_AT_EPOCH": 85062, "BSTAR": 0.0063651158, "MEAN_MOTION_DOT": 0.00018276, "MEAN_MOTION_DDOT": 0}, "tle": {"line1": "1 34492U 97051GH  25346.97180745  .00018276  00000+0  63651-2 0  9991", "line2": "2 34492  86.4723 334.5351 0189119 237.4159 151.0038 14.25737057850628"}}, "geometry": {"type": "Point", "coordinates": [-27.298515986776998, -22.17767076472811]}}, {"type": "Feature", "properties": {"norad_id": 34497, "name": "IRIDIUM 33 DEB", "group": "iridium-33-debris", "lat": -40.6964875419129, "lon": -124.90342799323405, "alt_km": 830.3491256265688, "timestamp": "2025-12-13T22:39:30.095642+00:00", "meta": {"OBJECT_NAME": "IRIDIUM 33 DEB", "OBJECT_ID": "1997-051GN", "EPOCH": "2025-12-13T05:03:26.883648", "MEAN_MOTION": 14.27456256, "ECCENTRICITY": 0.00787638, "INCLINATION": 86.2779, "RA_OF_ASC_NODE": 52.2004, "ARG_OF_PERICENTER": 338.0287, "MEAN_ANOMALY": 77.1802, "EPHEMERIS_TYPE": 0, "CLASSIFICATION_TYPE": "U", "NORAD_CAT_ID": 34497, "ELEMENT_SET_NO": 999, "REV_AT_EPOCH": 86890, "BSTAR": 0.00091393748, "MEAN_MOTION_DOT": 2.335e-05, "MEAN_MOTION_DDOT": 0}, "tle": {"line1": "1 34497U 97051GN  25347.21072782  .00002335  00000+0  91394-3 0  9990", "line2": "2 34497  86.2779  52.2004 0078763 338.0287  77.1802 14.27456256868901"}}, "geometry": {"type": "Point", "coordinates": [-124.90342799323405, -40.6964875419129]}}, {"type": "Feature", "properties": {"norad_id": 34508, "name": "IRIDIUM 33 DEB", "group": "iridium-33-debris", "lat": 66.05206513914231, "lon": 110.35056849427197, "alt_km": 767.3528154508795, "timestamp": "2025-12-13T22:39:30.095657+00:00", "meta": {"OBJECT_NAME": "IRIDIUM 33 DEB", "OBJECT_ID": "1997-051GZ", "EPOCH": "2025-12-12T17:57:57.853728", "MEAN_MOTION": 14.3842932, "ECCENTRICITY": 0.00660592, "INCLINATION": 86.3696, "RA_OF_ASC_NODE": 102.6391, "ARG_OF_PERICENTER": 172.9661, "MEAN_ANOMALY": 187.2481, "EPHEMERIS_TYPE": 0, "CLASSIFICATION_TYPE": "U", "NORAD_CAT_ID": 34508, "ELEMENT_SET_NO": 999, "REV_AT_EPOCH": 87309, "BSTAR": 0.002129503, "MEAN_MOTION_DOT": 6.683e-05, "MEAN_MOTION_DDOT": 0}, "tle": {"line1": "1 34508U 97051GZ  25346.74858627  .00006683  00000+0  21295-2 0  9992", "line2": "2 34508  86.3696 102.6391 0066059 172.9661 187.2481 14.38429320873094"}}, "geometry": {"type": "Point", "coordinates": [110.35056849427197, 66.05206513914231]}}, {"type": "Feature", "properties": {"norad_id": 34521, "name": "IRIDIUM 33 DEB", "group": "iridium-33-debris", "lat": -7.260611279926066, "lon": 29.555977182357523, "alt_km": 687.1571546496061, "timestamp": "2025-12-13T22:39:30.095670+00:00", "meta": {"OBJECT_NAME": "IRIDIUM 33 DEB", "OBJECT_ID": "1997-051HN", "EPOCH": "2025-12-13T04:38:21.799968", "MEAN_MOTION": 14.63375371, "ECCENTRICITY": 0.00015966, "INCLINATION": 86.3805, "RA_OF_ASC_NODE": 30.3484, "ARG_OF_PERICENTER": 211.9886, "MEAN_ANOMALY": 148.123, "EPHEMERIS_TYPE": 0, "CLASSIFICATION_TYPE": "U", "NORAD_CAT_ID": 34521, "ELEMENT_SET_NO": 999, "REV_AT_EPOCH": 88479, "BSTAR": 0.001295345, "MEAN_MOTION_DOT": 6.715e-05, "MEAN_MOTION_DDOT": 0}, "tle": {"line1": "1 34521U 97051HN  25347.19330787  .00006715  00000+0  12953-2 0  9996", "line2": "2 34521  86.3805  30.3484 0001596 211.9886 148.1230 14.63375371884790"}}, "geometry": {"type": "Point", "coordinates": [29.555977182357523, -7.260611279926066]}}, {"type": "Feature", "properties": {"norad_id": 34525, "name": "IRIDIUM 33 DEB", "group": "iridium-33-debris", "lat": 82.32212844596492, "lon": 74.39653569599176, "alt_km": 736.8265810738521, "timestamp": "2025-12-13T22:39:30.095680+00:00", "meta": {"OBJECT_NAME": "IRIDIUM 33 DEB", "OBJECT_ID": "1997-051HS", "EPOCH": "2025-12-13T04:05:45.430944", "MEAN_MOTION": 14.42907914, "ECCENTRICITY": 0.00066513, "INCLINATION": 86.373, "RA_OF_ASC_NODE": 46.6598, "ARG_OF_PERICENTER": 94.3043, "MEAN_ANOMALY": 293.9276, "EPHEMERIS_TYPE": 0, "CLASSIFICATION_TYPE": "U", "NORAD_CAT_ID": 34525, "ELEMENT_SET_NO": 999, "REV_AT_EPOCH": 88094, "BSTAR": 0.00056401986, "MEAN_MOTION_DOT": 1.904e-05, "MEAN_MOTION_DDOT": 0}, "tle": {"line1": "1 34525U 97051HS  25347.17066471  .00001904  00000+0  56402-3 0  9997", "line2": "2 34525  86.3730  46.6598 0006651  94.3043 293.9276 14.42907914880945"}}, "geometry": {"type": "Point", "coordinates": [74.39653569599176, 82.32212844596492]}}]}